start=new Date('2022-04-25T00:00:00.000Z').valueOf();
sats=[{"SEMIMAJOR_AXIS":"6925.372","OBJECT_TYPE":"PAYLOAD","TLE_LINE1":"1 47829U 21018AU  22114.42820423 -.00000221  00000-0  40626-5 0  9996","FILE":"3414186","RA_OF_ASC_NODE":"134.9822","TIME_SYSTEM":"UTC","PERIOD":"95.593","SITE":"AFETR","MEAN_MOTION":"15.06392493","ECCENTRICITY":"0.00018180","OBJECT_ID":"2021-018AU","TLE_LINE2":"2 47829  53.0533 134.9822 0001818  49.7217 310.3930 15.06392493 63132","REV_AT_EPOCH":"6313","DECAY_DATE":null,"LAUNCH_DATE":"2021-03-11","EPHEMERIS_TYPE":"0","MEAN_MOTION_DDOT":"0.0000000000000","ELEMENT_SET_NO":"999","PERIAPSIS":"545.978","CENTER_NAME":"EARTH","RCS_SIZE":"MEDIUM","REF_FRAME":"TEME","BSTAR":"0.00000406260000","GP_ID":"201935106","NORAD_CAT_ID":"47829","ARG_OF_PERICENTER":"49.7217","INCLINATION":"53.0533","COUNTRY_CODE":"US","MEAN_ANOMALY":"310.3930","CLASSIFICATION_TYPE":"U","APOAPSIS":"548.496","MEAN_MOTION_DOT":"-0.00000221","OBJECT_NAME":"STARLINK-2416","MEAN_ELEMENT_THEORY":"SGP4","EPOCH":"2022-04-24T10:16:36.845472"},{"FILE":"3414399","TLE_LINE1":"1 47830U 21018AV  22114.75625072  .00001374  00000-0  11116-3 0  9996","RA_OF_ASC_NODE":"133.5094","SEMIMAJOR_AXIS":"6925.353","OBJECT_TYPE":"PAYLOAD","PERIOD":"95.592","TIME_SYSTEM":"UTC","ECCENTRICITY":"0.00018420","MEAN_MOTION":"15.06398423","SITE":"AFETR","DECAY_DATE":null,"REV_AT_EPOCH":"6285","LAUNCH_DATE":"2021-03-11","EPHEMERIS_TYPE":"0","TLE_LINE2":"2 47830  53.0537 133.5094 0001842  43.0313 317.0819 15.06398423 62852","OBJECT_ID":"2021-018AV","MEAN_MOTION_DDOT":"0.0000000000000","ELEMENT_SET_NO":"999","PERIAPSIS":"545.943","GP_ID":"201943264","BSTAR":"0.00011116000000","NORAD_CAT_ID":"47830","ARG_OF_PERICENTER":"43.0313","RCS_SIZE":"LARGE","CENTER_NAME":"EARTH","REF_FRAME":"TEME","CLASSIFICATION_TYPE":"U","INCLINATION":"53.0537","MEAN_ANOMALY":"317.0819","COUNTRY_CODE":"US","OBJECT_NAME":"STARLINK-2419","EPOCH":"2022-04-24T18:09:00.062208","MEAN_ELEMENT_THEORY":"SGP4","APOAPSIS":"548.494","MEAN_MOTION_DOT":"0.00001374"},{"INCLINATION":"53.0575","MEAN_ANOMALY":"317.8426","COUNTRY_CODE":"US","CLASSIFICATION_TYPE":"U","APOAPSIS":"548.563","MEAN_MOTION_DOT":"-0.00000606","OBJECT_NAME":"STARLINK-2420","EPOCH":"2022-04-24T16:34:07.439232","MEAN_ELEMENT_THEORY":"SGP4","MEAN_MOTION_DDOT":"0.0000000000000","ELEMENT_SET_NO":"999","PERIAPSIS":"545.905","RCS_SIZE":"LARGE","CENTER_NAME":"EARTH","REF_FRAME":"TEME","GP_ID":"201943742","BSTAR":"-0.00002180000000","ARG_OF_PERICENTER":"42.2710","NORAD_CAT_ID":"47831","MEAN_MOTION":"15.06393408","SITE":"AFETR","ECCENTRICITY":"0.00019190","TLE_LINE2":"2 47831  53.0575 108.7976 0001919  42.2710 317.8426 15.06393408 63193","OBJECT_ID":"2021-018AW","DECAY_DATE":null,"REV_AT_EPOCH":"6319","EPHEMERIS_TYPE":"0","LAUNCH_DATE":"2021-03-11","SEMIMAJOR_AXIS":"6925.369","OBJECT_TYPE":"PAYLOAD","FILE":"3414397","TLE_LINE1":"1 47831U 21018AW  22114.69036388 -.00000606  00000-0 -21800-4 0  9997","RA_OF_ASC_NODE":"108.7976","TIME_SYSTEM":"UTC","PERIOD":"95.593"},{"PERIAPSIS":"546.106","ELEMENT_SET_NO":"999","MEAN_MOTION_DDOT":"0.0000000000000","REF_FRAME":"TEME","RCS_SIZE":"LARGE","CENTER_NAME":"EARTH","ARG_OF_PERICENTER":"58.9800","NORAD_CAT_ID":"47832","GP_ID":"201934357","BSTAR":"-0.00002939700000","COUNTRY_CODE":"US","MEAN_ANOMALY":"301.1347","INCLINATION":"53.0534","CLASSIFICATION_TYPE":"U","MEAN_MOTION_DOT":"-0.00000719","APOAPSIS":"548.344","MEAN_ELEMENT_THEORY":"SGP4","EPOCH":"2022-04-24T12:20:00.786336","OBJECT_NAME":"STARLINK-2422","OBJECT_TYPE":"PAYLOAD","SEMIMAJOR_AXIS":"6925.360","RA_OF_ASC_NODE":"124.5972","FILE":"3414186","TLE_LINE1":"1 47832U 21018AX  22114.51389799 -.00000719  00000-0 -29397-4 0  9990","TIME_SYSTEM":"UTC","PERIOD":"95.592","MEAN_MOTION":"15.06396236","SITE":"AFETR","ECCENTRICITY":"0.00016160","TLE_LINE2":"2 47832  53.0534 124.5972 0001616  58.9800 301.1347 15.06396236 63290","OBJECT_ID":"2021-018AX","EPHEMERIS_TYPE":"0","LAUNCH_DATE":"2021-03-11","DECAY_DATE":null,"REV_AT_EPOCH":"6329"},{"TIME_SYSTEM":"UTC","PERIOD":"95.593","OBJECT_TYPE":"PAYLOAD","SEMIMAJOR_AXIS":"6925.373","RA_OF_ASC_NODE":"123.5936","FILE":"3414406","TLE_LINE1":"1 47833U 21018AY  22114.73874182 -.00000845  00000-0 -37815-4 0  9994","TLE_LINE2":"2 47833  53.0541 123.5936 0001838  47.5958 312.5187 15.06392084 62993","OBJECT_ID":"2021-018AY","LAUNCH_DATE":"2021-03-11","EPHEMERIS_TYPE":"0","DECAY_DATE":null,"REV_AT_EPOCH":"6299","MEAN_MOTION":"15.06392084","SITE":"AFETR","ECCENTRICITY":"0.00018380","REF_FRAME":"TEME","RCS_SIZE":"LARGE","CENTER_NAME":"EARTH","NORAD_CAT_ID":"47833","ARG_OF_PERICENTER":"47.5958","GP_ID":"201943279","BSTAR":"-0.00003781500000","PERIAPSIS":"545.965","MEAN_MOTION_DDOT":"0.0000000000000","ELEMENT_SET_NO":"999","MEAN_MOTION_DOT":"-0.00000845","APOAPSIS":"548.511","EPOCH":"2022-04-24T17:43:47.293248","MEAN_ELEMENT_THEORY":"SGP4","OBJECT_NAME":"STARLINK-2423","COUNTRY_CODE":"US","MEAN_ANOMALY":"312.5187","INCLINATION":"53.0541","CLASSIFICATION_TYPE":"U"},{"LAUNCH_DATE":"2021-03-11","EPHEMERIS_TYPE":"0","DECAY_DATE":null,"REV_AT_EPOCH":"6299","TLE_LINE2":"2 47834  53.0531 123.5352 0001762  48.1490 311.9649 15.06395591 62991","OBJECT_ID":"2021-018AZ","ECCENTRICITY":"0.00017620","MEAN_MOTION":"15.06395591","SITE":"AFETR","PERIOD":"95.592","TIME_SYSTEM":"UTC","RA_OF_ASC_NODE":"123.5352","FILE":"3414531","TLE_LINE1":"1 47834U 21018AZ  22114.74979725 -.00000580  00000-0 -20045-4 0  9998","OBJECT_TYPE":"PAYLOAD","SEMIMAJOR_AXIS":"6925.362","MEAN_ELEMENT_THEORY":"SGP4","EPOCH":"2022-04-24T17:59:42.482400","OBJECT_NAME":"STARLINK-2424","MEAN_MOTION_DOT":"-0.00000580","APOAPSIS":"548.447","CLASSIFICATION_TYPE":"U","MEAN_ANOMALY":"311.9649","COUNTRY_CODE":"US","INCLINATION":"53.0531","NORAD_CAT_ID":"47834","ARG_OF_PERICENTER":"48.1490","GP_ID":"201946337","BSTAR":"-0.00002004500000","REF_FRAME":"TEME","RCS_SIZE":"LARGE","CENTER_NAME":"EARTH","PERIAPSIS":"546.007","MEAN_MOTION_DDOT":"0.0000000000000","ELEMENT_SET_NO":"999"},{"ELEMENT_SET_NO":"999","MEAN_MOTION_DDOT":"0.0000000000000","PERIAPSIS":"545.973","GP_ID":"201939776","BSTAR":"0.00004386100000","ARG_OF_PERICENTER":"58.1468","NORAD_CAT_ID":"47835","RCS_SIZE":"LARGE","CENTER_NAME":"EARTH","REF_FRAME":"TEME","CLASSIFICATION_TYPE":"U","INCLINATION":"53.0515","COUNTRY_CODE":"US","MEAN_ANOMALY":"301.9695","OBJECT_NAME":"STARLINK-2425","EPOCH":"2022-04-24T18:21:34.300512","MEAN_ELEMENT_THEORY":"SGP4","APOAPSIS":"548.455","MEAN_MOTION_DOT":"0.00000372","TLE_LINE1":"1 47835U 21018BA  22114.76498033  .00000372  00000-0  43861-4 0  9997","FILE":"3414253","RA_OF_ASC_NODE":"128.4539","SEMIMAJOR_AXIS":"6925.349","OBJECT_TYPE":"PAYLOAD","PERIOD":"95.592","TIME_SYSTEM":"UTC","ECCENTRICITY":"0.00017920","SITE":"AFETR","MEAN_MOTION":"15.06399899","REV_AT_EPOCH":"6292","DECAY_DATE":null,"LAUNCH_DATE":"2021-03-11","EPHEMERIS_TYPE":"0","OBJECT_ID":"2021-018BA","TLE_LINE2":"2 47835  53.0515 128.4539 0001792  58.1468 301.9695 15.06399899 62922"},{"PERIOD":"95.592","TIME_SYSTEM":"UTC","RA_OF_ASC_NODE":"124.6828","FILE":"3414186","TLE_LINE1":"1 47836U 21018BB  22114.49452160  .00000761  00000-0  69966-4 0  9995","OBJECT_TYPE":"PAYLOAD","SEMIMAJOR_AXIS":"6925.348","LAUNCH_DATE":"2021-03-11","EPHEMERIS_TYPE":"0","DECAY_DATE":null,"REV_AT_EPOCH":"6329","TLE_LINE2":"2 47836  53.0541 124.6828 0001823  49.4784 310.6363 15.06400078 63292","OBJECT_ID":"2021-018BB","ECCENTRICITY":"0.00018230","MEAN_MOTION":"15.06400078","SITE":"AFETR","ARG_OF_PERICENTER":"49.4784","NORAD_CAT_ID":"47836","GP_ID":"201934857","BSTAR":"0.00006996600000","REF_FRAME":"TEME","RCS_SIZE":"LARGE","CENTER_NAME":"EARTH","PERIAPSIS":"545.951","MEAN_MOTION_DDOT":"0.0000000000000","ELEMENT_SET_NO":"999","EPOCH":"2022-04-24T11:52:06.666240","MEAN_ELEMENT_THEORY":"SGP4","OBJECT_NAME":"STARLINK-2426","MEAN_MOTION_DOT":"0.00000761","APOAPSIS":"548.476","CLASSIFICATION_TYPE":"U","COUNTRY_CODE":"US","MEAN_ANOMALY":"310.6363","INCLINATION":"53.0541"},{"TLE_LINE1":"1 47837U 21018BC  22114.37935952 -.00000919  00000-0 -42785-4 0  9995","FILE":"3414186","RA_OF_ASC_NODE":"105.1998","SEMIMAJOR_AXIS":"6925.356","OBJECT_TYPE":"PAYLOAD","PERIOD":"95.592","TIME_SYSTEM":"UTC","ECCENTRICITY":"0.00023590","SITE":"AFETR","MEAN_MOTION":"15.06397533","REV_AT_EPOCH":"6356","DECAY_DATE":null,"LAUNCH_DATE":"2021-03-11","EPHEMERIS_TYPE":"0","OBJECT_ID":"2021-018BC","TLE_LINE2":"2 47837  53.0525 105.1998 0002359  36.1699 323.9450 15.06397533 63565","MEAN_MOTION_DDOT":"0.0000000000000","ELEMENT_SET_NO":"999","PERIAPSIS":"545.587","BSTAR":"-0.00004278500000","GP_ID":"201935107","NORAD_CAT_ID":"47837","ARG_OF_PERICENTER":"36.1699","CENTER_NAME":"EARTH","RCS_SIZE":"LARGE","REF_FRAME":"TEME","CLASSIFICATION_TYPE":"U","INCLINATION":"53.0525","MEAN_ANOMALY":"323.9450","COUNTRY_CODE":"US","OBJECT_NAME":"STARLINK-2427","EPOCH":"2022-04-24T09:06:16.662528","MEAN_ELEMENT_THEORY":"SGP4","APOAPSIS":"548.855","MEAN_MOTION_DOT":"-0.00000919"},{"ECCENTRICITY":"0.00020690","SITE":"AFETR","MEAN_MOTION":"15.06401137","REV_AT_EPOCH":"6329","DECAY_DATE":null,"LAUNCH_DATE":"2021-03-11","EPHEMERIS_TYPE":"0","OBJECT_ID":"2021-018BD","TLE_LINE2":"2 47838  53.0540 124.5420 0002069  42.4364 317.6784 15.06401137 63291","TLE_LINE1":"1 47838U 21018BD  22114.52495482  .00001313  00000-0  10705-3 0  9995","FILE":"3414186","RA_OF_ASC_NODE":"124.5420","SEMIMAJOR_AXIS":"6925.345","OBJECT_TYPE":"PAYLOAD","PERIOD":"95.592","TIME_SYSTEM":"UTC","CLASSIFICATION_TYPE":"U","INCLINATION":"53.0540","MEAN_ANOMALY":"317.6784","COUNTRY_CODE":"US","OBJECT_NAME":"STARLINK-2429","EPOCH":"2022-04-24T12:35:56.096448","MEAN_ELEMENT_THEORY":"SGP4","APOAPSIS":"548.643","MEAN_MOTION_DOT":"0.00001313","ELEMENT_SET_NO":"999","MEAN_MOTION_DDOT":"0.0000000000000","PERIAPSIS":"545.777","GP_ID":"201935359","BSTAR":"0.00010705000000","ARG_OF_PERICENTER":"42.4364","NORAD_CAT_ID":"47838","RCS_SIZE":"LARGE","CENTER_NAME":"EARTH","REF_FRAME":"TEME"}];
